CCSDS_OMM_VERS = 2.0
CREATION_DATE  = 
ORIGINATOR     = 

OBJECT_NAME    = SL-3 R/B
OBJECT_ID      = 1982-079B
CENTER_NAME    = EARTH
REF_FRAME      = TEME
TIME_SYSTEM    = UTC
MEAN_ELEMENT_THEORY = SGP/SGP4

EPOCH          = 2025-11-26T22:01:07.538304
MEAN_MOTION    = 15.23327961
ECCENTRICITY   = .00263117
INCLINATION    = 81.1464
RA_OF_ASC_NODE = 314.3094
ARG_OF_PERICENTER = 150.0959
MEAN_ANOMALY   = 210.1784

EPHEMERIS_TYPE = 0
CLASSIFICATION_TYPE = U
NORAD_CAT_ID   = 13403
ELEMENT_SET_NO = 999
REV_AT_EPOCH   = 36204
BSTAR          = .27967088E-3
MEAN_MOTION_DOT = .673E-4
MEAN_MOTION_DDOT = 0

CCSDS_OMM_VERS = 2.0
CREATION_DATE  = 
ORIGINATOR     = 

OBJECT_NAME    = SL-14 R/B
OBJECT_ID      = 1982-092B
CENTER_NAME    = EARTH
REF_FRAME      = TEME
TIME_SYSTEM    = UTC
MEAN_ELEMENT_THEORY = SGP/SGP4

EPOCH          = 2025-11-26T20:43:53.603040
MEAN_MOTION    = 14.86530530
ECCENTRICITY   = .00188447
INCLINATION    = 82.5691
RA_OF_ASC_NODE = 237.5576
ARG_OF_PERICENTER = 283.8743
MEAN_ANOMALY   = 145.6683

EPHEMERIS_TYPE = 0
CLASSIFICATION_TYPE = U
NORAD_CAT_ID   = 13553
ELEMENT_SET_NO = 999
REV_AT_EPOCH   = 31365
BSTAR          = .71693361E-4
MEAN_MOTION_DOT = .66E-5
MEAN_MOTION_DDOT = 0

CCSDS_OMM_VERS = 2.0
CREATION_DATE  = 
ORIGINATOR     = 

OBJECT_NAME    = SL-3 R/B
OBJECT_ID      = 1983-010B
CENTER_NAME    = EARTH
REF_FRAME      = TEME
TIME_SYSTEM    = UTC
MEAN_ELEMENT_THEORY = SGP/SGP4

EPOCH          = 2025-11-26T19:41:37.876128
MEAN_MOTION    = 15.42859998
ECCENTRICITY   = .00179525
INCLINATION    = 81.1030
RA_OF_ASC_NODE = 128.0411
ARG_OF_PERICENTER = 46.1548
MEAN_ANOMALY   = 314.1175

EPHEMERIS_TYPE = 0
CLASSIFICATION_TYPE = U
NORAD_CAT_ID   = 13819
ELEMENT_SET_NO = 999
REV_AT_EPOCH   = 34206
BSTAR          = .34375155E-3
MEAN_MOTION_DOT = .15204E-3
MEAN_MOTION_DDOT = 0

CCSDS_OMM_VERS = 2.0
CREATION_DATE  = 
ORIGINATOR     = 

OBJECT_NAME    = SL-3 R/B
OBJECT_ID      = 1983-075B
CENTER_NAME    = EARTH
REF_FRAME      = TEME
TIME_SYSTEM    = UTC
MEAN_ELEMENT_THEORY = SGP/SGP4

EPOCH          = 2025-11-26T21:22:20.257536
MEAN_MOTION    = 15.35679569
ECCENTRICITY   = .0021158
INCLINATION    = 97.6109
RA_OF_ASC_NODE = 326.8477
ARG_OF_PERICENTER = 234.3778
MEAN_ANOMALY   = 125.5495

EPHEMERIS_TYPE = 0
CLASSIFICATION_TYPE = U
NORAD_CAT_ID   = 14208
ELEMENT_SET_NO = 999
REV_AT_EPOCH   = 31436
BSTAR          = .34527082E-3
MEAN_MOTION_DOT = .11985E-3
MEAN_MOTION_DDOT = 0

CCSDS_OMM_VERS = 2.0
CREATION_DATE  = 
ORIGINATOR     = 

OBJECT_NAME    = COSMOS 1536
OBJECT_ID      = 1984-013A
CENTER_NAME    = EARTH
REF_FRAME      = TEME
TIME_SYSTEM    = UTC
MEAN_ELEMENT_THEORY = SGP/SGP4

EPOCH          = 2025-11-26T16:52:08.660064
MEAN_MOTION    = 15.22265574
ECCENTRICITY   = .00133132
INCLINATION    = 82.5459
RA_OF_ASC_NODE = 210.0636
ARG_OF_PERICENTER = 288.9870
MEAN_ANOMALY   = 70.9924

EPHEMERIS_TYPE = 0
CLASSIFICATION_TYPE = U
NORAD_CAT_ID   = 14699
ELEMENT_SET_NO = 999
REV_AT_EPOCH   = 25694
BSTAR          = .29845943E-3
MEAN_MOTION_DOT = .6914E-4
MEAN_MOTION_DDOT = 0

CCSDS_OMM_VERS = 2.0
CREATION_DATE  = 
ORIGINATOR     = 

OBJECT_NAME    = SL-14 R/B
OBJECT_ID      = 1984-027B
CENTER_NAME    = EARTH
REF_FRAME      = TEME
TIME_SYSTEM    = UTC
MEAN_ELEMENT_THEORY = SGP/SGP4

EPOCH          = 2025-11-26T12:40:15.556512
MEAN_MOTION    = 14.85848462
ECCENTRICITY   = .00169108
INCLINATION    = 82.5414
RA_OF_ASC_NODE = 341.7612
ARG_OF_PERICENTER = 319.1413
MEAN_ANOMALY   = 40.8534

EPHEMERIS_TYPE = 0
CLASSIFICATION_TYPE = U
NORAD_CAT_ID   = 14820
ELEMENT_SET_NO = 999
REV_AT_EPOCH   = 23231
BSTAR          = .69622202E-4
MEAN_MOTION_DOT = .631E-5
MEAN_MOTION_DDOT = 0

CCSDS_OMM_VERS = 2.0
CREATION_DATE  = 
ORIGINATOR     = 

OBJECT_NAME    = SL-8 R/B
OBJECT_ID      = 1985-006B
CENTER_NAME    = EARTH
REF_FRAME      = TEME
TIME_SYSTEM    = UTC
MEAN_ELEMENT_THEORY = SGP/SGP4

EPOCH          = 2025-11-26T19:51:38.517696
MEAN_MOTION    = 14.37706494
ECCENTRICITY   = .00179975
INCLINATION    = 74.0455
RA_OF_ASC_NODE = 90.4091
ARG_OF_PERICENTER = 27.3151
MEAN_ANOMALY   = 88.9858

EPHEMERIS_TYPE = 0
CLASSIFICATION_TYPE = U
NORAD_CAT_ID   = 15483
ELEMENT_SET_NO = 999
REV_AT_EPOCH   = 13924
BSTAR          = .1286338E-3
MEAN_MOTION_DOT = .361E-5
MEAN_MOTION_DDOT = 0

CCSDS_OMM_VERS = 2.0
CREATION_DATE  = 
ORIGINATOR     = 

OBJECT_NAME    = SL-12 R/B(2)
OBJECT_ID      = 1985-042D
CENTER_NAME    = EARTH
REF_FRAME      = TEME
TIME_SYSTEM    = UTC
MEAN_ELEMENT_THEORY = SGP/SGP4

EPOCH          = 2025-11-26T21:54:38.687328
MEAN_MOTION    = 14.21944188
ECCENTRICITY   = .00376678
INCLINATION    = 71.1080
RA_OF_ASC_NODE = 304.8560
ARG_OF_PERICENTER = 284.6690
MEAN_ANOMALY   = 111.8833

EPHEMERIS_TYPE = 0
CLASSIFICATION_TYPE = U
NORAD_CAT_ID   = 15772
ELEMENT_SET_NO = 999
REV_AT_EPOCH   = 9978
BSTAR          = .1065683E-3
MEAN_MOTION_DOT = .189E-5
MEAN_MOTION_DDOT = 0

CCSDS_OMM_VERS = 2.0
CREATION_DATE  = 
ORIGINATOR     = 

OBJECT_NAME    = SL-14 R/B
OBJECT_ID      = 1985-069B
CENTER_NAME    = EARTH
REF_FRAME      = TEME
TIME_SYSTEM    = UTC
MEAN_ELEMENT_THEORY = SGP/SGP4

EPOCH          = 2025-11-26T19:31:13.826208
MEAN_MOTION    = 14.86294921
ECCENTRICITY   = .00190936
INCLINATION    = 82.5250
RA_OF_ASC_NODE = 121.6754
ARG_OF_PERICENTER = 168.8730
MEAN_ANOMALY   = 191.2913

EPHEMERIS_TYPE = 0
CLASSIFICATION_TYPE = U
NORAD_CAT_ID   = 15945
ELEMENT_SET_NO = 999
REV_AT_EPOCH   = 15755
BSTAR          = .80315743E-4
MEAN_MOTION_DOT = .733E-5
MEAN_MOTION_DDOT = 0

CCSDS_OMM_VERS = 2.0
CREATION_DATE  = 
ORIGINATOR     = 

OBJECT_NAME    = SL-16 R/B
OBJECT_ID      = 1985-097B
CENTER_NAME    = EARTH
REF_FRAME      = TEME
TIME_SYSTEM    = UTC
MEAN_ELEMENT_THEORY = SGP/SGP4

EPOCH          = 2025-11-26T13:10:05.597760
MEAN_MOTION    = 14.16582498
ECCENTRICITY   = .00057681
INCLINATION    = 71.0040
RA_OF_ASC_NODE = 357.6912
ARG_OF_PERICENTER = 38.0791
MEAN_ANOMALY   = 75.4727

EPHEMERIS_TYPE = 0
CLASSIFICATION_TYPE = U
NORAD_CAT_ID   = 16182
ELEMENT_SET_NO = 999
REV_AT_EPOCH   = 7262
BSTAR          = .31837244E-4
MEAN_MOTION_DOT = .16E-6
MEAN_MOTION_DDOT = 0

CCSDS_OMM_VERS = 2.0
CREATION_DATE  = 
ORIGINATOR     = 

OBJECT_NAME    = SL-14 R/B
OBJECT_ID      = 1986-006B
CENTER_NAME    = EARTH
REF_FRAME      = TEME
TIME_SYSTEM    = UTC
MEAN_ELEMENT_THEORY = SGP/SGP4

EPOCH          = 2025-11-26T13:06:32.082624
MEAN_MOTION    = 14.86638694
ECCENTRICITY   = .00752483
INCLINATION    = 82.5273
RA_OF_ASC_NODE = 356.7893
ARG_OF_PERICENTER = 254.2969
MEAN_ANOMALY   = 104.9938

EPHEMERIS_TYPE = 0
CLASSIFICATION_TYPE = U
NORAD_CAT_ID   = 16496
ELEMENT_SET_NO = 999
REV_AT_EPOCH   = 13388
BSTAR          = .89997993E-4
MEAN_MOTION_DOT = .866E-5
MEAN_MOTION_DDOT = 0

CCSDS_OMM_VERS = 2.0
CREATION_DATE  = 
ORIGINATOR     = 

OBJECT_NAME    = COSMOS 1743
OBJECT_ID      = 1986-034A
CENTER_NAME    = EARTH
REF_FRAME      = TEME
TIME_SYSTEM    = UTC
MEAN_ELEMENT_THEORY = SGP/SGP4

EPOCH          = 2025-11-26T15:50:13.463520
MEAN_MOTION    = 15.51044324
ECCENTRICITY   = .00053822
INCLINATION    = 82.5356
RA_OF_ASC_NODE = 181.2779
ARG_OF_PERICENTER = 324.9028
MEAN_ANOMALY   = 35.1868

EPHEMERIS_TYPE = 0
CLASSIFICATION_TYPE = U
NORAD_CAT_ID   = 16719
ELEMENT_SET_NO = 999
REV_AT_EPOCH   = 16424
BSTAR          = .50194861E-3
MEAN_MOTION_DOT = .2929E-3
MEAN_MOTION_DDOT = 0

