SL-3 R/B                
1 13403U 82079B   25330.91744836  .00006730  00000+0  27967-3 0  9991
2 13403  81.1464 314.3094 0026311 150.0959 210.1784 15.23327961362040
SL-14 R/B               
1 13553U 82092B   25330.86381485  .00000660  00000+0  71693-4 0  9995
2 13553  82.5691 237.5576 0018844 283.8743 145.6683 14.86530530313651
SL-3 R/B                
1 13819U 83010B   25330.82057727  .00015204  00000+0  34375-3 0  9991
2 13819  81.1030 128.0411 0017952  46.1548 314.1175 15.42859998342063
SL-3 R/B                
1 14208U 83075B   25330.89051224  .00011985  00000+0  34527-3 0  9999
2 14208  97.6109 326.8477 0021158 234.3778 125.5495 15.35679569314361
COSMOS 1536             
1 14699U 84013A   25330.70287801  .00006914  00000+0  29846-3 0  9992
2 14699  82.5459 210.0636 0013313 288.9870  70.9924 15.22265574256941
SL-14 R/B               
1 14820U 84027B   25330.52795783  .00000631  00000+0  69622-4 0  9993
2 14820  82.5414 341.7612 0016910 319.1413  40.8534 14.85848462232319
SL-8 R/B                
1 15483U 85006B   25330.82752914  .00000361  00000+0  12863-3 0  9993
2 15483  74.0455  90.4091 0017997  27.3151  88.9858 14.37706494139243
SL-12 R/B(2)            
1 15772U 85042D   25330.91294777  .00000189  00000+0  10657-3 0  9999
2 15772  71.1080 304.8560 0037667 284.6690 111.8833 14.21944188 99781
SL-14 R/B               
1 15945U 85069B   25330.81335447  .00000733  00000+0  80316-4 0  9994
2 15945  82.5250 121.6754 0019093 168.8730 191.2913 14.86294921157554
SL-16 R/B               
1 16182U 85097B   25330.54867590  .00000016  00000+0  31837-4 0  9996
2 16182  71.0040 357.6912 0005768  38.0791  75.4727 14.16582498 72626
SL-14 R/B               
1 16496U 86006B   25330.54620466  .00000866  00000+0  89998-4 0  9998
2 16496  82.5273 356.7893 0075248 254.2969 104.9938 14.86638694133881
COSMOS 1743             
1 16719U 86034A   25330.65987805  .00029290  00000+0  50195-3 0  9990
2 16719  82.5356 181.2779 0005382 324.9028  35.1868 15.51044324164243
